[{"icaoId":"EHGG","receiptTime":"2026-06-09T23:27:14.264Z","obsTime":1781047500,"reportTime":"2026-06-09T23:25:00.000Z","temp":10,"dewp":9,"wdir":210,"wspd":8,"visib":"6+","altim":1013,"qcField":2,"metarType":"METAR","rawOb":"METAR EHGG 092325Z AUTO 21008KT 180V240 9999 NCD 10/09 Q1013","lat":53.12,"lon":6.579,"elev":2,"name":"Groningen Arpt, DR, NL","cover":"CLR","clouds":[],"fltCat":"VFR"},{"icaoId":"EHVK","receiptTime":"2026-06-09T23:30:24.329Z","obsTime":1781047500,"reportTime":"2026-06-09T23:25:00.000Z","temp":10,"dewp":10,"wdir":240,"wspd":4,"visib":"6+","altim":1016,"qcField":2,"metarType":"METAR","rawOb":"METAR EHVK 092325Z AUTO 24004KT 9999 OVC037 10/10 Q1016 BLU","lat":51.658,"lon":5.707,"elev":20,"name":"Volkel Arpt, NB, NL","cover":"OVC","clouds":[{"cover":"OVC","base":3700}],"fltCat":"VFR"},{"icaoId":"EHBK","receiptTime":"2026-06-09T23:27:14.235Z","obsTime":1781047500,"reportTime":"2026-06-09T23:25:00.000Z","temp":11,"dewp":8,"wdir":210,"wspd":8,"visib":"6+","altim":1017,"qcField":2,"metarType":"METAR","rawOb":"METAR EHBK 092325Z AUTO 21008KT 9999 NSC 11/08 Q1017","lat":50.905,"lon":5.762,"elev":112,"name":"Maastricht/Aachen Arpt, LI, NL","cover":"CLR","clouds":[],"fltCat":"VFR"},{"icaoId":"EHDL","receiptTime":"2026-06-09T23:30:23.999Z","obsTime":1781047500,"reportTime":"2026-06-09T23:25:00.000Z","temp":9,"dewp":8,"wdir":170,"wspd":5,"visib":"6+","altim":1015,"qcField":2,"metarType":"METAR","rawOb":"METAR EHDL 092325Z AUTO 17005KT 120V200 9999 ////// 09/08 Q1015 BLU","lat":52.061,"lon":5.887,"elev":49,"name":"Deelen, GE, NL"},{"icaoId":"EHLE","receiptTime":"2026-06-09T23:27:14.324Z","obsTime":1781047500,"reportTime":"2026-06-09T23:25:00.000Z","temp":11,"dewp":7,"wdir":210,"wspd":7,"visib":"6+","altim":1014,"qcField":2,"metarType":"METAR","rawOb":"METAR EHLE 092325Z AUTO 21007KT 9999 NSC 11/07 Q1014","lat":52.456,"lon":5.522,"elev":-3,"name":"Lelystad Arpt, FL, NL","cover":"CLR","clouds":[],"fltCat":"VFR"},{"icaoId":"EHHW","receiptTime":"2026-06-09T23:29:18.652Z","obsTime":1781047500,"reportTime":"2026-06-09T23:25:00.000Z","temp":14,"dewp":8,"wdir":250,"wspd":18,"visib":"6+","altim":1009,"qcField":2,"metarType":"METAR","rawOb":"METAR EHHW 092325Z AUTO 25018KT 200V280 9999 NCD 14/08 Q1009","lat":54.037,"lon":6.042,"elev":10,"name":"Buitengaats, , NL","cover":"CLR","clouds":[],"fltCat":"VFR"},{"icaoId":"EHLW","receiptTime":"2026-06-09T23:30:24.210Z","obsTime":1781047500,"reportTime":"2026-06-09T23:25:00.000Z","temp":9,"dewp":7,"wdir":210,"wspd":7,"visib":"6+","altim":1013,"qcField":2,"metarType":"METAR","rawOb":"METAR EHLW 092325Z AUTO 21007KT 9999 NCD 09/07 Q1013 BLU","lat":53.223,"lon":5.752,"elev":1,"name":"Leeuwarden Arpt, FR, NL","cover":"CLR","clouds":[],"fltCat":"VFR"},{"icaoId":"EDHK","receiptTime":"2026-06-09T23:25:35.457Z","obsTime":1781047200,"reportTime":"2026-06-09T23:20:00.000Z","temp":9,"dewp":8,"wdir":200,"wspd":6,"visib":5.59,"altim":1013,"qcField":2,"metarType":"METAR","rawOb":"METAR EDHK 092320Z AUTO 20006KT 160V240 9000 // OVC051/// 09/08 Q1013","lat":54.376,"lon":10.143,"elev":24,"name":"Kiel/Holtenau Arpt, SH, DE","cover":"OVC","clouds":[{"cover":"OVC","base":5100}],"fltCat":"VFR"},{"icaoId":"EDDE","receiptTime":"2026-06-09T23:23:35.792Z","obsTime":1781047200,"reportTime":"2026-06-09T23:20:00.000Z","temp":10,"dewp":6,"wdir":220,"wspd":6,"visib":"6+","altim":1017,"qcField":2,"metarType":"METAR","rawOb":"METAR EDDE 092320Z AUTO 22006KT CAVOK 10/06 Q1017","lat":50.983,"lon":10.961,"elev":314,"name":"Erfurt Arpt, TH, DE","cover":"CAVOK","clouds":[],"fltCat":"VFR"},{"icaoId":"EDDH","receiptTime":"2026-06-09T23:23:23.182Z","obsTime":1781047200,"reportTime":"2026-06-09T23:20:00.000Z","temp":10,"dewp":9,"wdir":190,"wspd":4,"visib":"6+","altim":1014,"qcField":18,"metarType":"METAR","rawOb":"METAR EDDH 092320Z AUTO 19004KT 9999 FEW016 10/09 Q1014 NOSIG","lat":53.633,"lon":9.988,"elev":8,"name":"Hamburg Arpt, HH, DE","cover":"FEW","clouds":[{"cover":"FEW","base":1600}],"fltCat":"VFR"},{"icaoId":"EDDN","receiptTime":"2026-06-09T23:23:23.295Z","obsTime":1781047200,"reportTime":"2026-06-09T23:20:00.000Z","temp":12,"dewp":6,"wdir":120,"wspd":2,"visib":"6+","altim":1018,"qcField":2,"metarType":"METAR","rawOb":"METAR EDDN 092320Z AUTO 12002KT CAVOK 12/06 Q1018","lat":49.503,"lon":11.055,"elev":312,"name":"Nurnberg Arpt, BY, DE","cover":"CAVOK","clouds":[],"fltCat":"VFR"},{"icaoId":"EDDP","receiptTime":"2026-06-09T23:23:35.874Z","obsTime":1781047200,"reportTime":"2026-06-09T23:20:00.000Z","temp":13,"dewp":9,"wdir":150,"wspd":6,"visib":"6+","altim":1017,"qcField":18,"metarType":"METAR","rawOb":"METAR EDDP 092320Z AUTO 15006KT CAVOK 13/09 Q1017 NOSIG","lat":51.435,"lon":12.24,"elev":129,"name":"Leipzig/Halle Arpt, SN, DE","cover":"CAVOK","clouds":[],"fltCat":"VFR"},{"icaoId":"EDDS","receiptTime":"2026-06-09T23:23:23.322Z","obsTime":1781047200,"reportTime":"2026-06-09T23:20:00.000Z","temp":13,"dewp":7,"wdir":280,"wspd":4,"visib":"6+","altim":1018,"qcField":2,"metarType":"METAR","rawOb":"METAR EDDS 092320Z AUTO 28004KT 9999 FEW049 13/07 Q1018","lat":48.69,"lon":9.222,"elev":374,"name":"Stuttgart Arpt, BW, DE","cover":"FEW","clouds":[{"cover":"FEW","base":4900}],"fltCat":"VFR"},{"icaoId":"EDDW","receiptTime":"2026-06-09T23:23:35.944Z","obsTime":1781047200,"reportTime":"2026-06-09T23:20:00.000Z","temp":9,"dewp":7,"wdir":170,"wspd":5,"visib":"6+","altim":1015,"qcField":2,"metarType":"METAR","rawOb":"METAR EDDW 092320Z AUTO 17005KT CAVOK 09/07 Q1015","lat":53.047,"lon":8.787,"elev":5,"name":"Bremen Arpt, HB, DE","cover":"CAVOK","clouds":[],"fltCat":"VFR"},{"icaoId":"LOWL","receiptTime":"2026-06-09T23:25:25.313Z","obsTime":1781047200,"reportTime":"2026-06-09T23:20:00.000Z","temp":14,"dewp":13,"wdir":190,"wspd":2,"visib":"6+","altim":1019,"qcField":16,"metarType":"METAR","rawOb":"METAR LOWL 092320Z 19002KT 9999 FEW030 BKN034 14/13 Q1019 NOSIG","lat":48.233,"lon":14.188,"elev":290,"name":"Linz Arpt, OB, AT","cover":"BKN","clouds":[{"cover":"FEW","base":3000},{"cover":"BKN","base":3400}],"fltCat":"VFR"},{"icaoId":"LOWI","receiptTime":"2026-06-09T23:25:25.365Z","obsTime":1781047200,"reportTime":"2026-06-09T23:20:00.000Z","temp":13,"dewp":11,"wdir":"VRB","wspd":1,"visib":"6+","altim":1019,"qcField":2,"wxString":"-RA","metarType":"METAR","rawOb":"METAR LOWI 092320Z AUTO VRB01KT 9999 -RA FEW009 SCT026 BKN046 13/11 Q1019","lat":47.26,"lon":11.344,"elev":570,"name":"Innsbruck Arpt, TI, AT","cover":"BKN","clouds":[{"cover":"FEW","base":900},{"cover":"SCT","base":2600},{"cover":"BKN","base":4600}],"fltCat":"VFR"},{"icaoId":"LOWS","receiptTime":"2026-06-09T23:25:25.340Z","obsTime":1781047200,"reportTime":"2026-06-09T23:20:00.000Z","temp":13,"dewp":12,"wdir":150,"wspd":4,"visib":"6+","altim":1019,"qcField":2,"wxString":"-RA","metarType":"METAR","rawOb":"METAR LOWS 092320Z AUTO 15004KT 9999 -RA OVC070 13/12 Q1019","lat":47.789,"lon":13.009,"elev":427,"name":"Salzburg/Mozart Arpt, SA, AT","cover":"OVC","clouds":[{"cover":"OVC","base":7000}],"fltCat":"VFR"},{"icaoId":"EDDM","receiptTime":"2026-06-09T23:23:23.269Z","obsTime":1781047200,"reportTime":"2026-06-09T23:20:00.000Z","temp":12,"dewp":12,"wdir":170,"wspd":2,"visib":"6+","altim":1019,"qcField":18,"wxString":"-RA","metarType":"METAR","rawOb":"METAR EDDM 092320Z AUTO 17002KT 9999 -RA NSC 12/12 Q1019 NOSIG","lat":48.348,"lon":11.813,"elev":445,"name":"Munich Intl, BY, DE","cover":"CLR","clouds":[],"fltCat":"VFR"},{"icaoId":"EDJA","receiptTime":"2026-06-09T23:26:07.655Z","obsTime":1781047200,"reportTime":"2026-06-09T23:20:00.000Z","temp":12,"dewp":10,"wdir":250,"wspd":2,"visib":"6+","altim":1019,"qcField":2,"metarType":"METAR","rawOb":"METAR EDJA 092320Z AUTO 25002KT 9999 // FEW046/// BKN056/// OVC085/// 12/10 Q1019","lat":47.989,"lon":10.239,"elev":625,"name":"Memmingerberg Arpt, BY, DE","cover":"OVC","clouds":[{"cover":"FEW","base":4600},{"cover":"BKN","base":5600},{"cover":"OVC","base":8500}],"fltCat":"VFR"},{"icaoId":"ETHL","receiptTime":"2026-06-09T23:26:25.336Z","obsTime":1781047200,"reportTime":"2026-06-09T23:20:00.000Z","temp":13,"dewp":10,"wdir":170,"wspd":2,"visib":"6+","altim":1018,"qcField":0,"wxString":"-RA","metarType":"METAR","rawOb":"METAR ETHL 092320Z 17002KT 9999 -RA FEW020 BKN040 13/10 Q1018 BLU","lat":48.218,"lon":9.91,"elev":536,"name":"Laupheim Arpt, BW, DE","cover":"BKN","clouds":[{"cover":"FEW","base":2000},{"cover":"BKN","base":4000}],"fltCat":"VFR"},{"icaoId":"EDNY","receiptTime":"2026-06-09T23:26:07.378Z","obsTime":1781047200,"reportTime":"2026-06-09T23:20:00.000Z","temp":13,"dewp":12,"wdir":"VRB","wspd":2,"visib":"6+","altim":1019,"qcField":2,"metarType":"METAR","rawOb":"METAR EDNY 092320Z AUTO VRB02KT 9999 // FEW034/// BKN085/// OVC097/// 13/12 Q1019","lat":47.671,"lon":9.511,"elev":411,"name":"Friedrichshafen Arpt, BW, DE","cover":"OVC","clouds":[{"cover":"FEW","base":3400},{"cover":"BKN","base":8500},{"cover":"OVC","base":9700}],"fltCat":"VFR"},{"icaoId":"EDXW","receiptTime":"2026-06-09T23:26:07.424Z","obsTime":1781047200,"reportTime":"2026-06-09T23:20:00.000Z","temp":13,"dewp":8,"wdir":240,"wspd":16,"visib":"6+","altim":1011,"qcField":2,"metarType":"METAR","rawOb":"METAR EDXW 092320Z AUTO 24016KT 9999 // FEW025/// SCT055/// BKN065/// 13/08 Q1011","lat":54.913,"lon":8.341,"elev":8,"name":"Westerland/Sylt Arpt, SH, DE","cover":"BKN","clouds":[{"cover":"FEW","base":2500},{"cover":"SCT","base":5500},{"cover":"BKN","base":6500}],"fltCat":"VFR"},{"icaoId":"ELLX","receiptTime":"2026-06-09T23:25:25.625Z","obsTime":1781047200,"reportTime":"2026-06-09T23:20:00.000Z","temp":10,"dewp":7,"wdir":240,"wspd":5,"visib":"6+","altim":1018,"qcField":16,"metarType":"METAR","rawOb":"METAR ELLX 092320Z 24005KT CAVOK 10/07 Q1018 NOSIG","lat":49.626,"lon":6.204,"elev":374,"name":"Luxembourg/Findel Arpt, LL, LU","cover":"CAVOK","clouds":[],"fltCat":"VFR"},{"icaoId":"ETNH","receiptTime":"2026-06-09T23:28:10.231Z","obsTime":1781047200,"reportTime":"2026-06-09T23:20:00.000Z","temp":10,"dewp":9,"wdir":180,"wspd":5,"visib":"6+","altim":1012,"qcField":2,"metarType":"METAR","rawOb":"METAR ETNH 092320Z AUTO 18005KT 9999 // ////// 10/09 Q1012 ///","lat":54.312,"lon":9.538,"elev":6,"name":"Hohn , SH, DE"},{"icaoId":"EDDB","receiptTime":"2026-06-09T23:23:35.734Z","obsTime":1781047200,"reportTime":"2026-06-09T23:20:00.000Z","temp":9,"dewp":6,"wdir":190,"wspd":1,"visib":"6+","altim":1017,"qcField":18,"metarType":"METAR","rawOb":"METAR EDDB 092320Z AUTO 19001KT CAVOK 09/06 Q1017 NOSIG","lat":52.3807,"lon":13.5306,"elev":48,"name":"Berlin/Brandenburg Intl, BR, DE","cover":"CAVOK","clouds":[],"fltCat":"VFR"},{"icaoId":"EDDC","receiptTime":"2026-06-09T23:23:35.764Z","obsTime":1781047200,"reportTime":"2026-06-09T23:20:00.000Z","temp":13,"dewp":8,"wdir":"VRB","wspd":2,"visib":"6+","altim":1017,"qcField":2,"metarType":"METAR","rawOb":"METAR EDDC 092320Z AUTO VRB02KT CAVOK 13/08 Q1017","lat":51.128,"lon":13.7543,"elev":227,"name":"Dresden Arpt, SN, DE","cover":"CAVOK","clouds":[],"fltCat":"VFR"},{"icaoId":"EDTY","receiptTime":"2026-06-09T23:26:07.555Z","obsTime":1781047200,"reportTime":"2026-06-09T23:20:00.000Z","temp":10,"dewp":7,"wdir":"VRB","wspd":1,"visib":"6+","altim":1018,"qcField":2,"metarType":"METAR","rawOb":"METAR EDTY 092320Z AUTO VRB01KT 9999 // BKN180/// 10/07 Q1018","lat":49.118,"lon":9.784,"elev":398,"name":"Schwäbisch Hall Arpt, BW, DE","cover":"BKN","clouds":[{"cover":"BKN","base":18000}],"fltCat":"VFR"},{"icaoId":"EDGS","receiptTime":"2026-06-09T23:26:13.607Z","obsTime":1781047200,"reportTime":"2026-06-09T23:20:00.000Z","temp":9,"dewp":6,"wdir":230,"wspd":6,"visib":"6+","altim":1017,"qcField":2,"metarType":"METAR","rawOb":"METAR EDGS 092320Z AUTO 23006KT 9999 // FEW081/// 09/06 Q1017","lat":50.708,"lon":8.083,"elev":595,"name":"Siegerland Arpt, NT, DE","cover":"FEW","clouds":[{"cover":"FEW","base":8100}],"fltCat":"VFR"},{"icaoId":"EDBC","receiptTime":"2026-06-09T23:25:35.099Z","obsTime":1781047200,"reportTime":"2026-06-09T23:20:00.000Z","temp":11,"dewp":8,"wdir":200,"wspd":7,"visib":"6+","altim":1017,"qcField":2,"metarType":"METAR","rawOb":"METAR EDBC 092320Z AUTO 20007KT 180V240 CAVOK 11/08 Q1017","lat":51.856,"lon":11.42,"elev":178,"name":"Magdeburg/Cochstedt Arpt, ST, DE","cover":"CAVOK","clouds":[],"fltCat":"VFR"},{"icaoId":"EDLP","receiptTime":"2026-06-09T23:25:35.215Z","obsTime":1781047200,"reportTime":"2026-06-09T23:20:00.000Z","temp":11,"dewp":7,"wdir":190,"wspd":8,"visib":"6+","altim":1017,"qcField":0,"metarType":"METAR","rawOb":"METAR EDLP 092320Z 19008KT CAVOK 11/07 Q1017","lat":51.614,"lon":8.616,"elev":211,"name":"Paderborn Arpt, NT, DE","cover":"CAVOK","clouds":[],"fltCat":"VFR"},{"icaoId":"ETSH","receiptTime":"2026-06-09T23:26:28.518Z","obsTime":1781047200,"reportTime":"2026-06-09T23:20:00.000Z","temp":11,"dewp":7,"wdir":"VRB","wspd":1,"visib":"6+","altim":1017,"qcField":0,"metarType":"METAR","rawOb":"METAR ETSH 092320Z VRB01KT 9999 BKN100 11/07 Q1017 BLU","lat":51.768,"lon":13.168,"elev":79,"name":"Holzdorf Arpt, BR, DE","cover":"BKN","clouds":[{"cover":"BKN","base":10000}],"fltCat":"VFR"},{"icaoId":"ETMN","receiptTime":"2026-06-09T23:26:28.371Z","obsTime":1781047200,"reportTime":"2026-06-09T23:20:00.000Z","temp":9,"dewp":8,"wdir":200,"wspd":8,"visib":"6+","altim":1013,"qcField":0,"metarType":"METAR","rawOb":"METAR ETMN 092320Z 20008KT 9999 FEW020 09/08 Q1013 BLU+","lat":53.765,"lon":8.658,"elev":23,"name":"Nordholz Arpt), NI, DE","cover":"FEW","clouds":[{"cover":"FEW","base":2000}],"fltCat":"VFR"},{"icaoId":"EDVE","receiptTime":"2026-06-09T23:25:35.585Z","obsTime":1781047200,"reportTime":"2026-06-09T23:20:00.000Z","temp":10,"dewp":9,"wdir":90,"wspd":3,"visib":"6+","altim":1016,"qcField":2,"metarType":"METAR","rawOb":"METAR EDVE 092320Z AUTO 09003KT CAVOK 10/09 Q1016","lat":52.319,"lon":10.558,"elev":83,"name":"Braunschweig Arpt, NI, DE","cover":"CAVOK","clouds":[],"fltCat":"VFR"},{"icaoId":"EDVK","receiptTime":"2026-06-09T23:26:07.402Z","obsTime":1781047200,"reportTime":"2026-06-09T23:20:00.000Z","temp":11,"dewp":7,"wdir":210,"wspd":6,"visib":"6+","altim":1017,"qcField":2,"metarType":"METAR","rawOb":"METAR EDVK 092320Z AUTO 21006KT 9999 // BKN091/// 11/07 Q1017","lat":51.421,"lon":9.388,"elev":262,"name":"Kassel/Calden Arpt, HE, DE","cover":"BKN","clouds":[{"cover":"BKN","base":9100}],"fltCat":"VFR"},{"icaoId":"LSZH","receiptTime":"2026-06-09T23:22:14.374Z","obsTime":1781047200,"reportTime":"2026-06-09T23:20:00.000Z","temp":13,"dewp":11,"wdir":150,"wspd":4,"visib":"6+","altim":1019,"qcField":18,"metarType":"METAR","rawOb":"METAR LSZH 092320Z AUTO 15004KT 9999 FEW011 SCT058 13/11 Q1019 NOSIG","lat":47.48,"lon":8.536,"elev":424,"name":"Zürich Intl Arpt, ZH, CH","cover":"SCT","clouds":[{"cover":"FEW","base":1100},{"cover":"SCT","base":5800}],"fltCat":"VFR"},{"icaoId":"EDFH","receiptTime":"2026-06-09T23:25:31.722Z","obsTime":1781047200,"reportTime":"2026-06-09T23:20:00.000Z","temp":10,"dewp":6,"wdir":220,"wspd":6,"visib":"6+","altim":1018,"qcField":0,"metarType":"METAR","rawOb":"METAR EDFH 092320Z 22006KT 9999 FEW045 10/06 Q1018","lat":49.946,"lon":7.265,"elev":494,"name":"Frankfurt/Hahn Arpt, RP, DE","cover":"FEW","clouds":[{"cover":"FEW","base":4500}],"fltCat":"VFR"},{"icaoId":"EKRN","receiptTime":"2026-06-09T23:23:13.704Z","obsTime":1781047200,"reportTime":"2026-06-09T23:20:00.000Z","temp":14,"dewp":10,"wdir":250,"wspd":14,"visib":"6+","altim":1013,"qcField":2,"metarType":"METAR","rawOb":"METAR EKRN 092320Z AUTO 25014KT 9999 NCD 14/10 Q1013","lat":55.068,"lon":14.749,"elev":14,"name":"Ronne/Bornholm Arpt, HO, DK","cover":"CLR","clouds":[],"fltCat":"VFR"},{"icaoId":"ETNT","receiptTime":"2026-06-09T23:28:10.393Z","obsTime":1781047200,"reportTime":"2026-06-09T23:20:00.000Z","temp":10,"dewp":9,"wdir":190,"wspd":7,"visib":"6+","altim":1013,"qcField":2,"metarType":"METAR","rawOb":"METAR ETNT 092320Z AUTO 19007KT 9999 // ////// 10/09 Q1013 ///","lat":53.548,"lon":7.667,"elev":5,"name":"Wittmundhaven Arpt, NI, DE"},{"icaoId":"EDDF","receiptTime":"2026-06-09T23:23:23.142Z","obsTime":1781047200,"reportTime":"2026-06-09T23:20:00.000Z","temp":11,"dewp":6,"wdir":300,"wspd":4,"visib":"6+","altim":1018,"qcField":18,"metarType":"METAR","rawOb":"METAR EDDF 092320Z AUTO 30004KT CAVOK 11/06 Q1018 NOSIG","lat":50.045,"lon":8.598,"elev":113,"name":"Frankfurt/Main Arpt, HE, DE","cover":"CAVOK","clouds":[],"fltCat":"VFR"},{"icaoId":"EDDV","receiptTime":"2026-06-09T23:23:23.351Z","obsTime":1781047200,"reportTime":"2026-06-09T23:20:00.000Z","temp":10,"dewp":8,"wdir":140,"wspd":4,"visib":"6+","altim":1016,"qcField":2,"metarType":"METAR","rawOb":"METAR EDDV 092320Z AUTO 14004KT 110V170 CAVOK 10/08 Q1016","lat":52.466,"lon":9.68,"elev":53,"name":"Hannover Arpt, NI, DE","cover":"CAVOK","clouds":[],"fltCat":"VFR"},{"icaoId":"LSGC","receiptTime":"2026-06-09T23:22:25.092Z","obsTime":1781047200,"reportTime":"2026-06-09T23:20:00.000Z","temp":8,"dewp":6,"wdir":"VRB","wspd":1,"visib":"6+","altim":1020,"qcField":2,"metarType":"METAR","rawOb":"METAR LSGC 092320Z AUTO VRB01KT 9999 BKN034 08/06 Q1020","lat":47.083,"lon":6.792,"elev":1018,"name":"Les Eplatures Arpt, NE, CH","cover":"BKN","clouds":[{"cover":"BKN","base":3400}],"fltCat":"VFR"},{"icaoId":"EDLW","receiptTime":"2026-06-09T23:26:07.482Z","obsTime":1781047200,"reportTime":"2026-06-09T23:20:00.000Z","temp":11,"dewp":8,"wdir":270,"wspd":4,"visib":"6+","altim":1016,"qcField":2,"metarType":"METAR","rawOb":"METAR EDLW 092320Z AUTO 27004KT 180V350 9999 // FEW035/// SCT040/// BKN230/// 11/08 Q1016","lat":51.518,"lon":7.612,"elev":122,"name":"Dortmund Arpt, NT, DE","cover":"BKN","clouds":[{"cover":"FEW","base":3500},{"cover":"SCT","base":4000},{"cover":"BKN","base":23000}],"fltCat":"VFR"},{"icaoId":"EDDG","receiptTime":"2026-06-09T23:23:35.835Z","obsTime":1781047200,"reportTime":"2026-06-09T23:20:00.000Z","temp":11,"dewp":7,"wdir":210,"wspd":7,"visib":"6+","altim":1016,"qcField":18,"metarType":"METAR","rawOb":"METAR EDDG 092320Z AUTO 21007KT 170V240 CAVOK 11/07 Q1016 NOSIG","lat":52.135,"lon":7.697,"elev":46,"name":"Münster/Osnabrück Arpt, NT, DE","cover":"CAVOK","clouds":[],"fltCat":"VFR"},{"icaoId":"EDDK","receiptTime":"2026-06-09T23:23:23.213Z","obsTime":1781047200,"reportTime":"2026-06-09T23:20:00.000Z","temp":10,"dewp":7,"wdir":180,"wspd":5,"visib":"6+","altim":1017,"qcField":18,"metarType":"METAR","rawOb":"METAR EDDK 092320Z AUTO 18005KT CAVOK 10/07 Q1017 NOSIG","lat":50.865,"lon":7.157,"elev":92,"name":"Koln-Bonn Arpt, NT, DE","cover":"CAVOK","clouds":[],"fltCat":"VFR"},{"icaoId":"EDDL","receiptTime":"2026-06-09T23:23:23.241Z","obsTime":1781047200,"reportTime":"2026-06-09T23:20:00.000Z","temp":11,"dewp":8,"wdir":230,"wspd":7,"visib":"6+","altim":1017,"qcField":18,"metarType":"METAR","rawOb":"METAR EDDL 092320Z AUTO 23007KT CAVOK 11/08 Q1017 NOSIG","lat":51.296,"lon":6.769,"elev":37,"name":"Düsseldorf Intl, NT, DE","cover":"CAVOK","clouds":[],"fltCat":"VFR"},{"icaoId":"EDDR","receiptTime":"2026-06-09T23:23:35.913Z","obsTime":1781047200,"reportTime":"2026-06-09T23:20:00.000Z","temp":9,"dewp":6,"wdir":240,"wspd":3,"visib":"6+","altim":1018,"qcField":2,"metarType":"METAR","rawOb":"METAR EDDR 092320Z AUTO 24003KT 9999 FEW048 09/06 Q1018","lat":49.213,"lon":7.108,"elev":317,"name":"Saarbrücken Arpt, SL, DE","cover":"FEW","clouds":[{"cover":"FEW","base":4800}],"fltCat":"VFR"},{"icaoId":"ETWM","receiptTime":"2026-06-09T23:28:10.658Z","obsTime":1781047200,"reportTime":"2026-06-09T23:20:00.000Z","temp":10,"dewp":8,"wdir":210,"wspd":4,"altim":1014,"qcField":2,"metarType":"METAR","rawOb":"METAR ETWM 092320Z AUTO 21004KT //// // ////// 10/08 Q1014 ///","lat":52.725,"lon":7.33,"elev":18,"name":"Meppen, NI, DE"},{"icaoId":"EDWE","receiptTime":"2026-06-09T23:25:31.819Z","obsTime":1781047200,"reportTime":"2026-06-09T23:20:00.000Z","temp":11,"dewp":9,"wdir":210,"wspd":8,"visib":"6+","altim":1013,"qcField":2,"metarType":"METAR","rawOb":"METAR EDWE 092320Z AUTO 21008KT 180V240 CAVOK 11/09 Q1013","lat":53.388,"lon":7.229,"elev":0,"name":"Emden Arpt, NI, DE","cover":"CAVOK","clouds":[],"fltCat":"VFR"},{"icaoId":"EDFM","receiptTime":"2026-06-09T23:26:07.588Z","obsTime":1781047200,"reportTime":"2026-06-09T23:20:00.000Z","temp":12,"dewp":7,"wdir":"VRB","wspd":1,"visib":"6+","altim":1018,"qcField":2,"metarType":"METAR","rawOb":"METAR EDFM 092320Z AUTO VRB01KT 9999 // FEW250/// 12/07 Q1018","lat":49.474,"lon":8.515,"elev":94,"name":"Mannheim City Arpt, BW, DE","cover":"FEW","clouds":[{"cover":"FEW","base":25000}],"fltCat":"VFR"},{"icaoId":"EDHL","receiptTime":"2026-06-09T23:26:07.632Z","obsTime":1781047200,"reportTime":"2026-06-09T23:20:00.000Z","temp":11,"dewp":9,"wdir":230,"wspd":4,"visib":"6+","altim":1014,"qcField":2,"metarType":"METAR","rawOb":"METAR EDHL 092320Z AUTO 23004KT 9999 // FEW029/// BKN066/// 11/09 Q1014","lat":53.805,"lon":10.719,"elev":13,"name":"Lübeck Arpt, SH, DE","cover":"BKN","clouds":[{"cover":"FEW","base":2900},{"cover":"BKN","base":6600}],"fltCat":"VFR"},{"icaoId":"EDQM","receiptTime":"2026-06-09T23:26:07.534Z","obsTime":1781047200,"reportTime":"2026-06-09T23:20:00.000Z","temp":8,"dewp":4,"wdir":180,"wspd":4,"visib":"6+","altim":1018,"qcField":2,"metarType":"METAR","rawOb":"METAR EDQM 092320Z AUTO 18004KT 9999 // NCD 08/04 Q1018","lat":50.289,"lon":11.86,"elev":578,"name":"Hof/Plauen Arpt, BY, DE","cover":"CLR","clouds":[],"fltCat":"VFR"},{"icaoId":"ETNL","receiptTime":"2026-06-09T23:26:28.424Z","obsTime":1781047200,"reportTime":"2026-06-09T23:20:00.000Z","temp":10,"dewp":7,"wdir":190,"wspd":4,"visib":"6+","altim":1014,"qcField":0,"metarType":"METAR","rawOb":"METAR ETNL 092320Z 19004KT 9999 FEW060 10/07 Q1014 BLU+","lat":53.916,"lon":12.279,"elev":40,"name":"Laage Arpt, MV, DE","cover":"FEW","clouds":[{"cover":"FEW","base":6000}],"fltCat":"VFR"},{"icaoId":"ETHS","receiptTime":"2026-06-09T23:28:10.118Z","obsTime":1781047200,"reportTime":"2026-06-09T23:20:00.000Z","temp":9,"dewp":7,"wdir":230,"wspd":5,"altim":1015,"qcField":2,"metarType":"METAR","rawOb":"METAR ETHS 092320Z AUTO 23005KT //// // ////// 09/07 Q1015 ///","lat":52.918,"lon":10.184,"elev":71,"name":"Fassberg Arpt, NI, DE"},{"icaoId":"EDAH","receiptTime":"2026-06-09T23:26:10.120Z","obsTime":1781047200,"reportTime":"2026-06-09T23:20:00.000Z","temp":14,"dewp":10,"wdir":240,"wspd":9,"visib":"6+","altim":1015,"qcField":2,"metarType":"METAR","rawOb":"METAR EDAH 092320Z AUTO 24009KT 9999 // NCD 14/10 Q1015","lat":53.879,"lon":14.152,"elev":22,"name":"Heringsdorf Arpt, MV, DE","cover":"CLR","clouds":[],"fltCat":"VFR"},{"icaoId":"LFSX","receiptTime":"2026-06-09T23:02:14.683Z","obsTime":1781046000,"reportTime":"2026-06-09T23:00:00.000Z","temp":11,"dewp":9,"wdir":140,"wspd":4,"visib":"6+","altim":1019,"qcField":2,"metarType":"METAR","rawOb":"METAR LFSX 092300Z AUTO 14004KT CAVOK 11/09 Q1019","lat":47.783,"lon":6.364,"elev":266,"name":"Luxeuil Arpt, HD, FR","cover":"CAVOK","clouds":[],"fltCat":"VFR"},{"icaoId":"LFSN","receiptTime":"2026-06-09T23:02:20.779Z","obsTime":1781046000,"reportTime":"2026-06-09T23:00:00.000Z","temp":9,"dewp":6,"wdir":120,"wspd":5,"visib":"6+","altim":1019,"qcField":2,"metarType":"METAR","rawOb":"METAR LFSN 092300Z AUTO 12005KT CAVOK 09/06 Q1019","lat":48.692,"lon":6.231,"elev":214,"name":"Nancy/Essey Arpt, GE, FR","cover":"CAVOK","clouds":[],"fltCat":"VFR"},{"icaoId":"LKPR","receiptTime":"2026-06-09T23:02:15.514Z","obsTime":1781046000,"reportTime":"2026-06-09T23:00:00.000Z","temp":11,"dewp":9,"wdir":220,"wspd":8,"visib":"6+","altim":1018,"qcField":16,"metarType":"METAR","rawOb":"METAR LKPR 092300Z 22008KT CAVOK 11/09 Q1018 NOSIG","lat":50.101,"lon":14.26,"elev":364,"name":"Prague/Havel Arpt, ST, CZ","cover":"CAVOK","clouds":[],"fltCat":"VFR"},{"icaoId":"LFSB","receiptTime":"2026-06-09T23:02:20.606Z","obsTime":1781046000,"reportTime":"2026-06-09T23:00:00.000Z","temp":14,"dewp":8,"wdir":"VRB","wspd":3,"visib":"6+","altim":1019,"qcField":18,"metarType":"METAR","rawOb":"METAR LFSB 092300Z AUTO VRB03KT CAVOK 14/08 Q1019 NOSIG","lat":47.614,"lon":7.51,"elev":262,"name":"Basel/Euro Arpt, GE, FR","cover":"CAVOK","clouds":[],"fltCat":"VFR"},{"icaoId":"EPSC","receiptTime":"2026-06-09T23:02:14.412Z","obsTime":1781046000,"reportTime":"2026-06-09T23:00:00.000Z","temp":8,"dewp":8,"wdir":140,"wspd":5,"visib":"6+","altim":1016,"qcField":0,"metarType":"METAR","rawOb":"METAR EPSC 092300Z 14005KT CAVOK 08/08 Q1016","lat":53.585,"lon":14.902,"elev":47,"name":"Szczecin/Golenow Arpt, ZA, PL","cover":"CAVOK","clouds":[],"fltCat":"VFR"},{"icaoId":"LFST","receiptTime":"2026-06-09T23:02:20.353Z","obsTime":1781046000,"reportTime":"2026-06-09T23:00:00.000Z","temp":13,"dewp":6,"wdir":"VRB","wspd":3,"visib":"6+","altim":1019,"qcField":18,"metarType":"METAR","rawOb":"METAR LFST 092300Z AUTO VRB03KT CAVOK 13/06 Q1019 NOSIG","lat":48.549,"lon":7.64,"elev":149,"name":"Strasbourg/Entzheim Arpt, PD, FR","cover":"CAVOK","clouds":[],"fltCat":"VFR"},{"icaoId":"LKKV","receiptTime":"2026-06-09T23:02:15.454Z","obsTime":1781046000,"reportTime":"2026-06-09T23:00:00.000Z","temp":8,"dewp":5,"wdir":80,"wspd":2,"visib":"6+","altim":1018,"qcField":0,"metarType":"METAR","rawOb":"METAR LKKV 092300Z 08002KT CAVOK 08/05 Q1018","lat":50.202,"lon":12.91,"elev":600,"name":"Karlovy Vary Intl, KA, CZ","cover":"CAVOK","clouds":[],"fltCat":"VFR"},{"icaoId":"ETIH","receiptTime":"2026-06-09T23:12:41.421Z","obsTime":1781045700,"reportTime":"2026-06-09T23:00:00.000Z","temp":8.9,"dewp":6.7,"wdir":0,"wspd":0,"visib":"6+","altim":1019,"slp":1019.3,"qcField":38,"metarType":"METAR","rawOb":"METAR ETIH 092255Z AUTO 00000KT 9999 BKN140 09/07 A3009 RMK AO2 SLP193 T00890067 TSNO","lat":49.216,"lon":11.839,"elev":436,"name":"Hohenfels , BY, DE","cover":"BKN","clouds":[{"cover":"BKN","base":14000}],"fltCat":"VFR"},{"icaoId":"LSME","receiptTime":"2026-06-09T22:53:15.982Z","obsTime":1781045400,"reportTime":"2026-06-09T23:00:00.000Z","temp":13,"dewp":12,"wdir":0,"wspd":0,"altim":1019,"qcField":2,"wxString":"-RA","metarType":"METAR","rawOb":"METAR LSME 092250Z AUTO 00000KT 9999NDV -RA OVC052 13/12 Q1019 RMK","lat":47.092,"lon":8.305,"elev":427,"name":"Emmen Arpt, LU, CH","cover":"OVC","clouds":[{"cover":"OVC","base":5200}]}]